GLOBALSTAR M023         
1 25621U 99004A   25077.79018950  .00000034  00000+0  76720-3 0  9999
2 25621  52.0129 328.7055 0009264 290.2790 145.4363 12.62502008204409
GLOBALSTAR M040         
1 25622U 99004B   25077.19600659 -.00000055  00000+0  27276-3 0  9993
2 25622  51.9939 334.5329 0000765 140.6889  27.2762 12.62004701203765
GLOBALSTAR M036         
1 25623U 99004C   25077.50674317 -.00000038  00000+0  65231-3 0  9995
2 25623  51.9947 119.3350 0011126 237.9060 266.3253 11.86591176168215
GLOBALSTAR M038         
1 25624U 99004D   25077.84177368 -.00000053  00000+0  34250-3 0  9991
2 25624  51.9997 331.7579 0001243 208.7301 238.2998 12.32522461191197
GLOBALSTAR M022         
1 25649U 99012A   25077.56413201 -.00000074  00000+0  15778-3 0  9992
2 25649  52.0032 177.2565 0002073   7.5503  97.3595 12.02497314165479
GLOBALSTAR M041         
1 25650U 99012B   25077.34072865 -.00000091  00000+0 -77281-4 0  9995
2 25650  52.0025  56.5444 0001725 130.2200 229.8788 11.96668840167406
GLOBALSTAR M046         
1 25651U 99012C   25077.53509226 -.00000064  00000+0  27147-3 0  9997
2 25651  52.0037 130.7784 0002370  81.4200  66.4058 12.09406427172694
GLOBALSTAR M037         
1 25652U 99012D   25077.54693470 -.00000047  00000+0  31671-3 0  9992
2 25652  51.9988 100.0951 0001794 353.6637 172.0997 12.62439560199824
